{"type":"FeatureCollection","name":"north-barnes-proposal-preview-v1","metadata":{"status":"illustrative-scale-preview","not_for_planning_use":true,"site_reference":"11EC","basis":"Public authority descriptions of Site 11EC plus published promoter/campaign context; parcel/building geometry is analytical, not final proposal geometry.","current_project_baseline":"Up to 3,000 homes; exact geometry pending verified GIS.","generated":"2026-09-12"},"features":[{"type":"Feature","properties":{"kind":"site-envelope","name":"Site 11EC illustrative study envelope","confidence":"illustrative-digitalisation","source_basis":"Lewes District Council LAA Site 11EC descriptions and published public maps; not survey geometry"},"geometry":{"type":"Polygon","coordinates":[[[-0.0588,50.9392],[-0.056,50.9411],[-0.052,50.9404],[-0.049,50.9415],[-0.043,50.9408],[-0.0388,50.939],[-0.0395,50.936],[-0.0368,50.9343],[-0.0385,50.9315],[-0.041,50.9295],[-0.0402,50.9266],[-0.0458,50.9245],[-0.0515,50.9253],[-0.056,50.9276],[-0.0595,50.9312],[-0.0588,50.9392]]]}},{"type":"Feature","properties":{"kind":"development-zone","zone":"A","phase":1,"confidence":"illustrative"},"geometry":{"type":"Polygon","coordinates":[[[-0.0566,50.9283],[-0.0528,50.9283],[-0.0528,50.9315],[-0.0566,50.9315],[-0.0566,50.9283]]]}},{"type":"Feature","properties":{"kind":"building","zone":"A","phase":1,"height_m":9,"confidence":"illustrative"},"geometry":{"type":"Polygon","coordinates":[[[-0.056315,50.928716],[-0.05561833333333333,50.928716],[-0.05561833333333333,50.929483999999995],[-0.056315,50.929483999999995],[-0.056315,50.928716]]]}},{"type":"Feature","properties":{"kind":"building","zone":"A","phase":1,"height_m":10,"confidence":"illustrative"},"geometry":{"type":"Polygon","coordinates":[[[-0.05504833333333333,50.928716],[-0.054351666666666666,50.928716],[-0.054351666666666666,50.929483999999995],[-0.05504833333333333,50.929483999999995],[-0.05504833333333333,50.928716]]]}},{"type":"Feature","properties":{"kind":"building","zone":"A","phase":1,"height_m":11,"confidence":"illustrative"},"geometry":{"type":"Polygon","coordinates":[[[-0.053781666666666665,50.928716],[-0.053085,50.928716],[-0.053085,50.929483999999995],[-0.053781666666666665,50.929483999999995],[-0.053781666666666665,50.928716]]]}},{"type":"Feature","properties":{"kind":"building","zone":"A","phase":1,"height_m":10,"confidence":"illustrative"},"geometry":{"type":"Polygon","coordinates":[[[-0.056315,50.930316000000005],[-0.05561833333333333,50.930316000000005],[-0.05561833333333333,50.931084],[-0.056315,50.931084],[-0.056315,50.930316000000005]]]}},{"type":"Feature","properties":{"kind":"building","zone":"A","phase":1,"height_m":11,"confidence":"illustrative"},"geometry":{"type":"Polygon","coordinates":[[[-0.05504833333333333,50.930316000000005],[-0.054351666666666666,50.930316000000005],[-0.054351666666666666,50.931084],[-0.05504833333333333,50.931084],[-0.05504833333333333,50.930316000000005]]]}},{"type":"Feature","properties":{"kind":"building","zone":"A","phase":1,"height_m":12,"confidence":"illustrative"},"geometry":{"type":"Polygon","coordinates":[[[-0.053781666666666665,50.930316000000005],[-0.053085,50.930316000000005],[-0.053085,50.931084],[-0.053781666666666665,50.931084],[-0.053781666666666665,50.930316000000005]]]}},{"type":"Feature","properties":{"kind":"development-zone","zone":"B","phase":2,"confidence":"illustrative"},"geometry":{"type":"Polygon","coordinates":[[[-0.056,50.9322],[-0.052,50.9322],[-0.052,50.9358],[-0.056,50.9358],[-0.056,50.9322]]]}},{"type":"Feature","properties":{"kind":"building","zone":"B","phase":2,"height_m":10,"confidence":"illustrative"},"geometry":{"type":"Polygon","coordinates":[[[-0.0557,50.93266800000001],[-0.054966666666666664,50.93266800000001],[-0.054966666666666664,50.933532],[-0.0557,50.933532],[-0.0557,50.93266800000001]]]}},{"type":"Feature","properties":{"kind":"building","zone":"B","phase":2,"height_m":11,"confidence":"illustrative"},"geometry":{"type":"Polygon","coordinates":[[[-0.05436666666666667,50.93266800000001],[-0.05363333333333333,50.93266800000001],[-0.05363333333333333,50.933532],[-0.05436666666666667,50.933532],[-0.05436666666666667,50.93266800000001]]]}},{"type":"Feature","properties":{"kind":"building","zone":"B","phase":2,"height_m":12,"confidence":"illustrative"},"geometry":{"type":"Polygon","coordinates":[[[-0.053033333333333335,50.93266800000001],[-0.0523,50.93266800000001],[-0.0523,50.933532],[-0.053033333333333335,50.933532],[-0.053033333333333335,50.93266800000001]]]}},{"type":"Feature","properties":{"kind":"building","zone":"B","phase":2,"height_m":11,"confidence":"illustrative"},"geometry":{"type":"Polygon","coordinates":[[[-0.0557,50.934468],[-0.054966666666666664,50.934468],[-0.054966666666666664,50.935331999999995],[-0.0557,50.935331999999995],[-0.0557,50.934468]]]}},{"type":"Feature","properties":{"kind":"building","zone":"B","phase":2,"height_m":12,"confidence":"illustrative"},"geometry":{"type":"Polygon","coordinates":[[[-0.05436666666666667,50.934468],[-0.05363333333333333,50.934468],[-0.05363333333333333,50.935331999999995],[-0.05436666666666667,50.935331999999995],[-0.05436666666666667,50.934468]]]}},{"type":"Feature","properties":{"kind":"building","zone":"B","phase":2,"height_m":8,"confidence":"illustrative"},"geometry":{"type":"Polygon","coordinates":[[[-0.053033333333333335,50.934468],[-0.0523,50.934468],[-0.0523,50.935331999999995],[-0.053033333333333335,50.935331999999995],[-0.053033333333333335,50.934468]]]}},{"type":"Feature","properties":{"kind":"development-zone","zone":"C","phase":3,"confidence":"illustrative"},"geometry":{"type":"Polygon","coordinates":[[[-0.0514,50.9267],[-0.0472,50.9267],[-0.0472,50.9307],[-0.0514,50.9307],[-0.0514,50.9267]]]}},{"type":"Feature","properties":{"kind":"building","zone":"C","phase":3,"height_m":11,"confidence":"illustrative"},"geometry":{"type":"Polygon","coordinates":[[[-0.051085000000000005,50.92722],[-0.050315,50.92722],[-0.050315,50.928180000000005],[-0.051085000000000005,50.928180000000005],[-0.051085000000000005,50.92722]]]}},{"type":"Feature","properties":{"kind":"building","zone":"C","phase":3,"height_m":12,"confidence":"illustrative"},"geometry":{"type":"Polygon","coordinates":[[[-0.049685,50.92722],[-0.04891499999999999,50.92722],[-0.04891499999999999,50.928180000000005],[-0.049685,50.928180000000005],[-0.049685,50.92722]]]}},{"type":"Feature","properties":{"kind":"building","zone":"C","phase":3,"height_m":8,"confidence":"illustrative"},"geometry":{"type":"Polygon","coordinates":[[[-0.048285,50.92722],[-0.047514999999999995,50.92722],[-0.047514999999999995,50.928180000000005],[-0.048285,50.928180000000005],[-0.048285,50.92722]]]}},{"type":"Feature","properties":{"kind":"building","zone":"C","phase":3,"height_m":12,"confidence":"illustrative"},"geometry":{"type":"Polygon","coordinates":[[[-0.051085000000000005,50.929219999999994],[-0.050315,50.929219999999994],[-0.050315,50.93018],[-0.051085000000000005,50.93018],[-0.051085000000000005,50.929219999999994]]]}},{"type":"Feature","properties":{"kind":"building","zone":"C","phase":3,"height_m":8,"confidence":"illustrative"},"geometry":{"type":"Polygon","coordinates":[[[-0.049685,50.929219999999994],[-0.04891499999999999,50.929219999999994],[-0.04891499999999999,50.93018],[-0.049685,50.93018],[-0.049685,50.929219999999994]]]}},{"type":"Feature","properties":{"kind":"development-zone","zone":"D","phase":4,"confidence":"illustrative"},"geometry":{"type":"Polygon","coordinates":[[[-0.051,50.9312],[-0.0465,50.9312],[-0.0465,50.9349],[-0.051,50.9349],[-0.051,50.9312]]]}},{"type":"Feature","properties":{"kind":"building","zone":"D","phase":4,"height_m":12,"confidence":"illustrative"},"geometry":{"type":"Polygon","coordinates":[[[-0.0506625,50.931681],[-0.04983749999999999,50.931681],[-0.04983749999999999,50.932569],[-0.0506625,50.932569],[-0.0506625,50.931681]]]}},{"type":"Feature","properties":{"kind":"building","zone":"D","phase":4,"height_m":8,"confidence":"illustrative"},"geometry":{"type":"Polygon","coordinates":[[[-0.049162500000000005,50.931681],[-0.0483375,50.931681],[-0.0483375,50.932569],[-0.049162500000000005,50.932569],[-0.049162500000000005,50.931681]]]}},{"type":"Feature","properties":{"kind":"building","zone":"D","phase":4,"height_m":8,"confidence":"illustrative"},"geometry":{"type":"Polygon","coordinates":[[[-0.0506625,50.933530999999995],[-0.04983749999999999,50.933530999999995],[-0.04983749999999999,50.934419],[-0.0506625,50.934419],[-0.0506625,50.933530999999995]]]}},{"type":"Feature","properties":{"kind":"building","zone":"D","phase":4,"height_m":10,"confidence":"illustrative"},"geometry":{"type":"Polygon","coordinates":[[[-0.047662500000000003,50.933530999999995],[-0.0468375,50.933530999999995],[-0.0468375,50.934419],[-0.047662500000000003,50.934419],[-0.047662500000000003,50.933530999999995]]]}},{"type":"Feature","properties":{"kind":"development-zone","zone":"E","phase":5,"confidence":"illustrative"},"geometry":{"type":"Polygon","coordinates":[[[-0.046,50.9288],[-0.0418,50.9288],[-0.0418,50.9328],[-0.046,50.9328],[-0.046,50.9288]]]}},{"type":"Feature","properties":{"kind":"building","zone":"E","phase":5,"height_m":8,"confidence":"illustrative"},"geometry":{"type":"Polygon","coordinates":[[[-0.045685,50.92932],[-0.044915,50.92932],[-0.044915,50.93028],[-0.045685,50.93028],[-0.045685,50.92932]]]}},{"type":"Feature","properties":{"kind":"building","zone":"E","phase":5,"height_m":10,"confidence":"illustrative"},"geometry":{"type":"Polygon","coordinates":[[[-0.042885,50.92932],[-0.04211499999999999,50.92932],[-0.04211499999999999,50.93028],[-0.042885,50.93028],[-0.042885,50.92932]]]}},{"type":"Feature","properties":{"kind":"building","zone":"E","phase":5,"height_m":10,"confidence":"illustrative"},"geometry":{"type":"Polygon","coordinates":[[[-0.044285,50.93132],[-0.04351499999999999,50.93132],[-0.04351499999999999,50.932280000000006],[-0.044285,50.932280000000006],[-0.044285,50.93132]]]}},{"type":"Feature","properties":{"kind":"building","zone":"E","phase":5,"height_m":11,"confidence":"illustrative"},"geometry":{"type":"Polygon","coordinates":[[[-0.042885,50.93132],[-0.04211499999999999,50.93132],[-0.04211499999999999,50.932280000000006],[-0.042885,50.932280000000006],[-0.042885,50.93132]]]}},{"type":"Feature","properties":{"kind":"development-zone","zone":"F","phase":6,"confidence":"illustrative"},"geometry":{"type":"Polygon","coordinates":[[[-0.0498,50.9354],[-0.045,50.9354],[-0.045,50.9389],[-0.0498,50.9389],[-0.0498,50.9354]]]}},{"type":"Feature","properties":{"kind":"building","zone":"F","phase":6,"height_m":10,"confidence":"illustrative"},"geometry":{"type":"Polygon","coordinates":[[[-0.04784,50.935855000000004],[-0.046959999999999995,50.935855000000004],[-0.046959999999999995,50.936695],[-0.04784,50.936695],[-0.04784,50.935855000000004]]]}},{"type":"Feature","properties":{"kind":"building","zone":"F","phase":6,"height_m":11,"confidence":"illustrative"},"geometry":{"type":"Polygon","coordinates":[[[-0.04624,50.935855000000004],[-0.04536,50.935855000000004],[-0.04536,50.936695],[-0.04624,50.936695],[-0.04624,50.935855000000004]]]}},{"type":"Feature","properties":{"kind":"building","zone":"F","phase":6,"height_m":10,"confidence":"illustrative"},"geometry":{"type":"Polygon","coordinates":[[[-0.04944,50.937605],[-0.04855999999999999,50.937605],[-0.04855999999999999,50.938444999999994],[-0.04944,50.938444999999994],[-0.04944,50.937605]]]}},{"type":"Feature","properties":{"kind":"building","zone":"F","phase":6,"height_m":11,"confidence":"illustrative"},"geometry":{"type":"Polygon","coordinates":[[[-0.04784,50.937605],[-0.046959999999999995,50.937605],[-0.046959999999999995,50.938444999999994],[-0.04784,50.938444999999994],[-0.04784,50.937605]]]}},{"type":"Feature","properties":{"kind":"building","zone":"F","phase":6,"height_m":12,"confidence":"illustrative"},"geometry":{"type":"Polygon","coordinates":[[[-0.04624,50.937605],[-0.04536,50.937605],[-0.04536,50.938444999999994],[-0.04624,50.938444999999994],[-0.04624,50.937605]]]}},{"type":"Feature","properties":{"kind":"development-zone","zone":"G","phase":7,"confidence":"illustrative"},"geometry":{"type":"Polygon","coordinates":[[[-0.0445,50.9336],[-0.0402,50.9336],[-0.0402,50.9372],[-0.0445,50.9372],[-0.0445,50.9336]]]}},{"type":"Feature","properties":{"kind":"building","zone":"G","phase":7,"height_m":10,"confidence":"illustrative"},"geometry":{"type":"Polygon","coordinates":[[[-0.0441775,50.934068],[-0.043389166666666666,50.934068],[-0.043389166666666666,50.934931999999996],[-0.0441775,50.934931999999996],[-0.0441775,50.934068]]]}},{"type":"Feature","properties":{"kind":"building","zone":"G","phase":7,"height_m":11,"confidence":"illustrative"},"geometry":{"type":"Polygon","coordinates":[[[-0.042744166666666666,50.934068],[-0.04195583333333333,50.934068],[-0.04195583333333333,50.934931999999996],[-0.042744166666666666,50.934931999999996],[-0.042744166666666666,50.934068]]]}},{"type":"Feature","properties":{"kind":"building","zone":"G","phase":7,"height_m":12,"confidence":"illustrative"},"geometry":{"type":"Polygon","coordinates":[[[-0.04131083333333333,50.934068],[-0.040522499999999996,50.934068],[-0.040522499999999996,50.934931999999996],[-0.04131083333333333,50.934931999999996],[-0.04131083333333333,50.934068]]]}},{"type":"Feature","properties":{"kind":"building","zone":"G","phase":7,"height_m":11,"confidence":"illustrative"},"geometry":{"type":"Polygon","coordinates":[[[-0.0441775,50.935868],[-0.043389166666666666,50.935868],[-0.043389166666666666,50.93673199999999],[-0.0441775,50.93673199999999],[-0.0441775,50.935868]]]}},{"type":"Feature","properties":{"kind":"building","zone":"G","phase":7,"height_m":12,"confidence":"illustrative"},"geometry":{"type":"Polygon","coordinates":[[[-0.042744166666666666,50.935868],[-0.04195583333333333,50.935868],[-0.04195583333333333,50.93673199999999],[-0.042744166666666666,50.93673199999999],[-0.042744166666666666,50.935868]]]}},{"type":"Feature","properties":{"kind":"building","zone":"G","phase":7,"height_m":8,"confidence":"illustrative"},"geometry":{"type":"Polygon","coordinates":[[[-0.04131083333333333,50.935868],[-0.040522499999999996,50.935868],[-0.040522499999999996,50.93673199999999],[-0.04131083333333333,50.93673199999999],[-0.04131083333333333,50.935868]]]}}]}